[
    {
        "Altitude(m)": 605459.0671203503,
        "Argument of Periapsis(deg)": 0.0,
        "Eccentricity": 0.0,
        "Inclination(deg)": 60.0,
        "Latitude(deg)": 27.988338431620104,
        "Longitude(deg)": 92.79857871556426,
        "Mean Anomaly(deg)": 32.72730000000001,
        "RAAN(deg)": 175.0,
        "Satellite Name": "Test1 772",
        "Satellite Number": 772,
        "Semi-Major Axis(m)": 6980739.136638005,
        "Time(s)": 0
    },
    {
        "Altitude(m)": 605535.8586193346,
        "Argument of Periapsis(deg)": 0.00010418945913296404,
        "Eccentricity": 0.0,
        "Inclination(deg)": 60.0,
        "Latitude(deg)": 28.501467998583237,
        "Longitude(deg)": 93.15552407852493,
        "Mean Anomaly(deg)": 33.34740614546182,
        "RAAN(deg)": 174.99957995086024,
        "Satellite Name": "Test1 772",
        "Satellite Number": 772,
        "Semi-Major Axis(m)": 6980739.136638005,
        "Time(s)": 10
    }
]